[{"OBJECT_NAME":"GAOFEN-11 05","OBJECT_ID":"2024-130A","EPOCH":"2026-03-09T22:37:47.360064","MEAN_MOTION":15.23784242,"ECCENTRICITY":0.00077059,"INCLINATION":97.4051,"RA_OF_ASC_NODE":148.5891,"ARG_OF_PERICENTER":100.8064,"MEAN_ANOMALY":259.4041,"EPHEMERIS_TYPE":0,"CLASSIFICATION_TYPE":"U","NORAD_CAT_ID":60249,"ELEMENT_SET_NO":999,"REV_AT_EPOCH":7035,"BSTAR":0.00034401659,"MEAN_MOTION_DOT":8.217e-5,"MEAN_MOTION_DDOT":0},{"OBJECT_NAME":"LVM3 R\/B","OBJECT_ID":"2025-309B","EPOCH":"2026-03-09T09:43:32.310048","MEAN_MOTION":15.20640009,"ECCENTRICITY":0.00083638,"INCLINATION":52.9312,"RA_OF_ASC_NODE":66.7134,"ARG_OF_PERICENTER":206.7636,"MEAN_ANOMALY":153.2927,"EPHEMERIS_TYPE":0,"CLASSIFICATION_TYPE":"U","NORAD_CAT_ID":67233,"ELEMENT_SET_NO":999,"REV_AT_EPOCH":1145,"BSTAR":0.00041930553,"MEAN_MOTION_DOT":9.009e-5,"MEAN_MOTION_DDOT":0}]
